{
  "norad_id": 68660,
  "name": "HULIANWANG DIGUI-168",
  "history": [
    {
      "epoch": "2026-04-09T21:05:30.446304Z",
      "apogee_km": 955.3752518581514,
      "perigee_km": 947.3597057601255,
      "latitude_deg": -1.8817767807028978e-05,
      "longitude_deg": -86.48315436962872,
      "height_km": 958.1981298584716,
      "semi_major_axis_km": 7329.504478809138,
      "eccentricity": 0.0005468,
      "inclination_deg": 86.4928,
      "raan_deg": 68.0144,
      "arg_perigee_deg": 196.2357,
      "mean_anomaly_deg": 163.8636,
      "mean_motion_rev_day": 13.83537198
    },
    {
      "epoch": "2026-04-10T12:42:47.988576Z",
      "apogee_km": 955.3613908160096,
      "perigee_km": 947.4073942008599,
      "latitude_deg": -1.7526077682895616e-05,
      "longitude_deg": 38.30929746156991,
      "height_km": 958.1975208795288,
      "semi_major_axis_km": 7329.5213925084345,
      "eccentricity": 0.0005426,
      "inclination_deg": 86.4931,
      "raan_deg": 67.7715,
      "arg_perigee_deg": 195.599,
      "mean_anomaly_deg": 164.5011,
      "mean_motion_rev_day": 13.83532409
    },
    {
      "epoch": "2026-04-11T19:57:24.016608Z",
      "apogee_km": 955.4392867013339,
      "perigee_km": 947.3460200580721,
      "latitude_deg": -9.518612049024004e-05,
      "longitude_deg": -72.11074491458895,
      "height_km": 958.3485835884904,
      "semi_major_axis_km": 7329.529653379703,
      "eccentricity": 0.0005521,
      "inclination_deg": 86.4934,
      "raan_deg": 67.2847,
      "arg_perigee_deg": 190.8853,
      "mean_anomaly_deg": 169.2195,
      "mean_motion_rev_day": 13.8353007
    },
    {
      "epoch": "2026-04-11T19:57:24.017472Z",
      "apogee_km": 955.4389202248512,
      "perigee_km": 947.3463865345548,
      "latitude_deg": 0.00010449497729689182,
      "longitude_deg": -72.1107363520731,
      "height_km": 958.3481988900899,
      "semi_major_axis_km": 7329.529653379703,
      "eccentricity": 0.00055205,
      "inclination_deg": 86.4934,
      "raan_deg": 67.2847,
      "arg_perigee_deg": 190.8854,
      "mean_anomaly_deg": 169.2196,
      "mean_motion_rev_day": 13.8353007
    },
    {
      "epoch": "2026-04-14T17:23:39.726240Z",
      "apogee_km": 956.2726248260742,
      "perigee_km": 947.4766108846479,
      "latitude_deg": 3.185821252986794e-06,
      "longitude_deg": -37.6096996972525,
      "height_km": 959.2526687543166,
      "semi_major_axis_km": 7330.011617855361,
      "eccentricity": 0.0006,
      "inclination_deg": 86.4937,
      "raan_deg": 66.2029,
      "arg_perigee_deg": 180.9604,
      "mean_anomaly_deg": 179.1553,
      "mean_motion_rev_day": 13.83393617
    },
    {
      "epoch": "2026-04-15T17:42:16.898112Z",
      "apogee_km": 958.1769646335279,
      "perigee_km": 948.684051024391,
      "latitude_deg": 3.7683213876880424e-05,
      "longitude_deg": -43.64286809456922,
      "height_km": 961.1381908035969,
      "semi_major_axis_km": 7331.567507828959,
      "eccentricity": 0.0006474,
      "inclination_deg": 86.4927,
      "raan_deg": 65.823,
      "arg_perigee_deg": 175.0305,
      "mean_anomaly_deg": 185.0928,
      "mean_motion_rev_day": 13.82953269
    },
    {
      "epoch": "2026-04-16T18:00:53.923104Z",
      "apogee_km": 958.1176336417902,
      "perigee_km": 948.6658268027877,
      "latitude_deg": -2.3261129691051887e-05,
      "longitude_deg": -49.67262858285087,
      "height_km": 961.0790441387961,
      "semi_major_axis_km": 7331.528730222289,
      "eccentricity": 0.0006446,
      "inclination_deg": 86.494,
      "raan_deg": 65.4459,
      "arg_perigee_deg": 175.0396,
      "mean_anomaly_deg": 185.0836,
      "mean_motion_rev_day": 13.82964241
    },
    {
      "epoch": "2026-04-16T18:00:53.923968Z",
      "apogee_km": 958.1174870112145,
      "perigee_km": 948.6659734333625,
      "latitude_deg": -2.3058628986707142e-05,
      "longitude_deg": -49.67263218036573,
      "height_km": 961.0788980272487,
      "semi_major_axis_km": 7331.528730222289,
      "eccentricity": 0.00064458,
      "inclination_deg": 86.494,
      "raan_deg": 65.4459,
      "arg_perigee_deg": 175.0396,
      "mean_anomaly_deg": 185.0836,
      "mean_motion_rev_day": 13.82964241
    },
    {
      "epoch": "2026-04-18T04:45:53.263296Z",
      "apogee_km": 960.1934341612705,
      "perigee_km": 955.9743735194725,
      "latitude_deg": 4.787255288957828e-05,
      "longitude_deg": 147.11260231749287,
      "height_km": 962.9322834028388,
      "semi_major_axis_km": 7336.220903840372,
      "eccentricity": 0.00028755,
      "inclination_deg": 86.4944,
      "raan_deg": 64.9055,
      "arg_perigee_deg": 152.6077,
      "mean_anomaly_deg": 207.5242,
      "mean_motion_rev_day": 13.81637658
    },
    {
      "epoch": "2026-04-20T08:56:05.010144Z",
      "apogee_km": 963.7979695796075,
      "perigee_km": 961.72519345613,
      "latitude_deg": 2.266313476291675e-05,
      "longitude_deg": 81.61191061350695,
      "height_km": 965.8326781304996,
      "semi_major_axis_km": 7340.8985815178685,
      "eccentricity": 0.00014118,
      "inclination_deg": 86.4949,
      "raan_deg": 64.0963,
      "arg_perigee_deg": 95.4319,
      "mean_anomaly_deg": 264.7008,
      "mean_motion_rev_day": 13.80317283
    },
    {
      "epoch": "2026-04-21T14:31:51.966048Z",
      "apogee_km": 970.2666497290629,
      "perigee_km": 966.2114501494971,
      "latitude_deg": -2.2695550981526146e-05,
      "longitude_deg": -3.990124722523923,
      "height_km": 969.6067451079032,
      "semi_major_axis_km": 7346.37604993928,
      "eccentricity": 0.000276,
      "inclination_deg": 86.4941,
      "raan_deg": 63.6554,
      "arg_perigee_deg": 37.7945,
      "mean_anomaly_deg": 322.3413,
      "mean_motion_rev_day": 13.78773821
    },
    {
      "epoch": "2026-04-22T18:24:57.554784Z",
      "apogee_km": 975.0430320504311,
      "perigee_km": 972.5654278559359,
      "latitude_deg": 5.8472397596565106e-05,
      "longitude_deg": -63.85710064511255,
      "height_km": 977.0438021217558,
      "semi_major_axis_km": 7351.941229953183,
      "eccentricity": 0.0001685,
      "inclination_deg": 86.5004,
      "raan_deg": 63.2069,
      "arg_perigee_deg": 102.6535,
      "mean_anomaly_deg": 257.4818,
      "mean_motion_rev_day": 13.77208587
    },
    {
      "epoch": "2026-04-23T13:36:12.051360Z",
      "apogee_km": 976.7062879385094,
      "perigee_km": 975.5982907141797,
      "latitude_deg": -9.270358135852637e-06,
      "longitude_deg": 7.2513943801251095,
      "height_km": 978.7538056498992,
      "semi_major_axis_km": 7354.289289326344,
      "eccentricity": 7.533e-05,
      "inclination_deg": 86.5026,
      "raan_deg": 62.9138,
      "arg_perigee_deg": 48.4519,
      "mean_anomaly_deg": 311.6709,
      "mean_motion_rev_day": 13.76549072
    },
    {
      "epoch": "2026-04-24T08:48:15.776064Z",
      "apogee_km": 980.9565685025937,
      "perigee_km": 978.7109158320845,
      "latitude_deg": 3.2806333288059122e-06,
      "longitude_deg": 78.15081597070959,
      "height_km": 982.9145424256767,
      "semi_major_axis_km": 7357.970742167338,
      "eccentricity": 0.0001526,
      "inclination_deg": 86.4955,
      "raan_deg": 62.6173,
      "arg_perigee_deg": 95.8733,
      "mean_anomaly_deg": 264.2604,
      "mean_motion_rev_day": 13.75516097
    },
    {
      "epoch": "2026-04-24T17:32:06.381888Z",
      "apogee_km": 983.6179237294436,
      "perigee_km": 980.1307503579519,
      "latitude_deg": 7.760609094745804e-05,
      "longitude_deg": -53.30389551817602,
      "height_km": 985.8209972737981,
      "semi_major_axis_km": 7360.0113370436975,
      "eccentricity": 0.0002369,
      "inclination_deg": 86.4967,
      "raan_deg": 62.482,
      "arg_perigee_deg": 124.2847,
      "mean_anomaly_deg": 235.8541,
      "mean_motion_rev_day": 13.74944085
    },
    {
      "epoch": "2026-04-27T20:44:20.952960Z",
      "apogee_km": 996.7346744173792,
      "perigee_km": 994.0035277575371,
      "latitude_deg": -1.565364216856145e-05,
      "longitude_deg": -105.60073351836881,
      "height_km": 998.2271480431563,
      "semi_major_axis_km": 7373.506101087458,
      "eccentricity": 0.0001852,
      "inclination_deg": 86.4985,
      "raan_deg": 61.3344,
      "arg_perigee_deg": 85.7575,
      "mean_anomaly_deg": 274.3797,
      "mean_motion_rev_day": 13.71171242
    },
    {
      "epoch": "2026-04-28T19:30:57.889728Z",
      "apogee_km": 1000.9948126879808,
      "perigee_km": 998.3151986315252,
      "latitude_deg": -1.649391388984298e-05,
      "longitude_deg": -88.54045123147576,
      "height_km": 1002.8334752750176,
      "semi_major_axis_km": 7377.792005659753,
      "eccentricity": 0.0001816,
      "inclination_deg": 86.4935,
      "raan_deg": 60.984,
      "arg_perigee_deg": 99.4953,
      "mean_anomaly_deg": 260.6412,
      "mean_motion_rev_day": 13.69976605
    },
    {
      "epoch": "2026-04-29T14:48:19.893024Z",
      "apogee_km": 1004.1442843074001,
      "perigee_km": 1002.2148081622145,
      "latitude_deg": 1.2958416920680008e-06,
      "longitude_deg": -18.96911962918096,
      "height_km": 1006.4104766956209,
      "semi_major_axis_km": 7381.316546234807,
      "eccentricity": 0.0001307,
      "inclination_deg": 86.4974,
      "raan_deg": 60.6892,
      "arg_perigee_deg": 106.4949,
      "mean_anomaly_deg": 253.6354,
      "mean_motion_rev_day": 13.68995487
    },
    {
      "epoch": "2026-04-29T21:49:25.800960Z",
      "apogee_km": 1006.6812109030589,
      "perigee_km": 1003.8344691885322,
      "latitude_deg": -4.582550973595572e-06,
      "longitude_deg": -124.63236797026738,
      "height_km": 1008.3400041149683,
      "semi_major_axis_km": 7383.394840045796,
      "eccentricity": 0.00019278,
      "inclination_deg": 86.4993,
      "raan_deg": 60.5888,
      "arg_perigee_deg": 95.1247,
      "mean_anomaly_deg": 265.0132,
      "mean_motion_rev_day": 13.68417506
    }
  ]
}